TERRA                   
1 25994U 99068A   21345.18492580  .00000070  00000-0  25455-4 0  9995
2 25994  98.1600  56.2146 0001321 102.3862 310.1511 14.57141696169202
